NORAD_CAT_ID,OBJECT_NAME,OBJECT_TYPE,EPOCH,MEAN_MOTION,ECCENTRICITY,INCLINATION,RA_OF_ASC_NODE,ARG_OF_PERICENTER,MEAN_ANOMALY,BSTAR,MEAN_MOTION_DOT,MEAN_MOTION_DDOT,TLE_LINE0,TLE_LINE1,TLE_LINE2,SEMIMAJOR_AXIS,PERIOD,APOGEE,PERIGEE,DECAYED
52303.0,STARLINK-3742,PAYLOAD,2023-09-25 10:23:44,15.08849754,9.61e-05,53.2166,162.5725,98.531,261.5791,0.00012942,1.773e-05,0.0,0 STARLINK-3742,1 52303U 22041AU  23268.43315296  .00001773  00000-0  12942-3 0  9995,2 52303  53.2166 162.5725 0000961  98.5310 261.5791 15.08849754 80424,6917.851,95.437,540.38,539.051,0.0
52303.0,STARLINK-3742,PAYLOAD,2023-09-25 21:31:26,15.08857184,9.92e-05,53.2163,160.4913,96.7131,263.3974,0.0002533,3.748e-05,0.0,0 STARLINK-3742,1 52303U 22041AU  23268.89682882  .00003748  00000-0  25330-3 0  9992,2 52303  53.2163 160.4913 0000992  96.7131 263.3974 15.08857184 80498,6917.828,95.436,540.379,539.007,0.0
52303.0,STARLINK-3742,PAYLOAD,2023-09-25 23:06:49,15.08862216,0.0001234,53.2169,160.194,101.5726,258.5405,0.00043409,6.632e-05,0.0,0 STARLINK-3742,1 52303U 22041AU  23268.96306765  .00006632  00000-0  43409-3 0  9995,2 52303  53.2169 160.1940 0001234 101.5726 258.5405 15.08862216 80505,6917.812,95.436,540.531,538.824,0.0
52303.0,STARLINK-3742,PAYLOAD,2023-09-26 21:22:13,15.08837328,0.0001113,53.2159,156.0311,95.6922,264.4197,-1.7721e-05,-5.7e-06,0.0,0 STARLINK-3742,1 52303U 22041AU  23269.89043922 -.00000570  00000-0 -17721-4 0  9997,2 52303  53.2159 156.0311 0001113  95.6922 264.4197 15.08837328 80642,6917.889,95.438,540.524,538.984,0.0
52303.0,STARLINK-3742,PAYLOAD,2023-09-27 02:08:23,15.08836149,0.0001317,53.216,155.1391,81.3624,278.7517,-1.5837e-06,-3.13e-06,0.0,0 STARLINK-3742,1 52303U 22041AU  23270.08916157 -.00000313  00000-0 -15837-5 0  9991,2 52303  53.2160 155.1391 0001317  81.3624 278.7517 15.08836149 80676,6917.892,95.438,540.668,538.846,0.0
52303.0,STARLINK-3742,PAYLOAD,2023-09-27 10:05:19,15.08831037,0.0001351,53.216,153.6521,92.5204,267.5943,-4.7206e-05,-1.039e-05,0.0,0 STARLINK-3742,1 52303U 22041AU  23270.42036504 -.00001039  00000-0 -47206-4 0  9998,2 52303  53.2160 153.6521 0001351  92.5204 267.5943 15.08831037 80726,6917.908,95.438,540.707,538.838,0.0
52303.0,STARLINK-3742,PAYLOAD,2023-09-27 19:37:38,15.08827096,0.0001461,53.2163,151.8671,102.4838,257.6318,-5.0146e-05,-1.086e-05,0.0,0 STARLINK-3742,1 52303U 22041AU  23270.81780990 -.00001086  00000-0 -50146-4 0  9995,2 52303  53.2163 151.8671 0001461 102.4838 257.6318 15.08827096 80783,6917.92,95.438,540.796,538.774,0.0
52303.0,STARLINK-3742,PAYLOAD,2023-09-27 22:48:25,15.08816097,0.0001713,53.2169,151.2721,110.0437,250.074,0.00045228,6.913e-05,0.0,0 STARLINK-3742,1 52303U 22041AU  23270.95029709  .00006913  00000-0  45228-3 0  9990,2 52303  53.2169 151.2721 0001713 110.0437 250.0740 15.08816097 80807,6917.953,95.439,541.003,538.633,0.0
52303.0,STARLINK-3742,PAYLOAD,2023-09-28 16:17:39,15.08836904,0.0001795,53.2165,147.9996,113.1139,247.0043,0.00030172,4.517e-05,0.0,0 STARLINK-3742,1 52303U 22041AU  23271.67893023  .00004517  00000-0  30172-3 0  9998,2 52303  53.2165 147.9996 0001795 113.1139 247.0043 15.08836904 80915,6917.89,95.438,540.997,538.513,0.0
52303.0,STARLINK-3742,PAYLOAD,2023-09-28 21:03:48,15.08844229,0.0001741,53.2164,147.1087,107.8023,252.3159,0.00037038,5.612e-05,0.0,0 STARLINK-3742,1 52303U 22041AU  23271.87764752  .00005612  00000-0  37038-3 0  9991,2 52303  53.2164 147.1087 0001741 107.8023 252.3159 15.08844229 80949,6917.867,95.437,540.937,538.528,0.0
52303.0,STARLINK-3742,PAYLOAD,2023-09-29 22:29:58,15.08851842,0.0001623,53.2171,142.3606,109.512,250.6048,0.00021329,3.109e-05,0.0,0 STARLINK-3742,1 52303U 22041AU  23272.93748210  .00003109  00000-0  21329-3 0  9995,2 52303  53.2171 142.3606 0001623 109.5120 250.6048 15.08851842 81103,6917.844,95.437,540.832,538.586,0.0
52303.0,STARLINK-3742,PAYLOAD,2023-09-30 08:02:17,15.08847268,0.0001535,53.2171,140.5723,94.6201,265.4966,0.00010329,1.357e-05,0.0,0 STARLINK-3742,1 52303U 22041AU  23273.33492235  .00001357  00000-0  10329-3 0  9994,2 52303  53.2171 140.5723 0001535  94.6201 265.4966 15.08847268 81165,6917.858,95.437,540.785,538.661,0.0
52303.0,STARLINK-3742,PAYLOAD,2023-09-30 19:09:59,15.08832468,0.0001266,53.2162,138.4891,89.1033,271.0104,-0.00018238,-3.189e-05,0.0,0 STARLINK-3742,1 52303U 22041AU  23273.79860926 -.00003189  00000-0 -18238-3 0  9994,2 52303  53.2162 138.4891 0001266  89.1033 271.0104 15.08832468 81231,6917.903,95.438,540.644,538.893,0.0
52303.0,STARLINK-3742,PAYLOAD,2023-10-01 07:53:04,15.08846111,0.0001243,53.2159,136.1098,93.125,266.9885,0.00011833,1.596e-05,0.0,0 STARLINK-3742,1 52303U 22041AU  23274.32852333  .00001596  00000-0  11833-3 0  9999,2 52303  53.2159 136.1098 0001243  93.1250 266.9885 15.08846111 81310,6917.862,95.437,540.587,538.867,0.0
52303.0,STARLINK-3742,PAYLOAD,2023-10-01 20:36:09,15.08859964,0.0001169,53.2149,133.7309,85.2312,274.8813,0.00096783,0.00015157,0.0,0 STARLINK-3742,1 52303U 22041AU  23274.85844130  .00015157  00000-0  96783-3 0  9998,2 52303  53.2149 133.7309 0001169  85.2312 274.8813 15.08859964 81392,6917.819,95.436,540.493,538.876,0.0
52303.0,STARLINK-3742,PAYLOAD,2023-10-01 23:46:55,15.08866986,0.0001161,53.2148,133.136,83.9989,276.1135,0.0010868,0.00017063,0.0,0 STARLINK-3742,1 52303U 22041AU  23274.99091884  .00017063  00000-0  10868-2 0  9990,2 52303  53.2148 133.1360 0001161  83.9989 276.1135 15.08866986 81416,6917.798,95.436,540.466,538.86,0.0
52303.0,STARLINK-3742,PAYLOAD,2023-10-02 07:43:51,15.08852987,0.000122,53.2147,131.6473,88.8733,271.2399,0.0005169,7.951e-05,0.0,0 STARLINK-3742,1 52303U 22041AU  23275.32211998  .00007951  00000-0  51690-3 0  9992,2 52303  53.2147 131.6473 0001220  88.8733 271.2399 15.08852987 81469,6917.841,95.437,540.55,538.862,0.0
52303.0,STARLINK-3742,PAYLOAD,2023-10-02 20:26:56,15.0883861,0.0001362,53.2142,129.2695,92.7887,267.3261,0.0003371,5.081e-05,0.0,0 STARLINK-3742,1 52303U 22041AU  23275.85204595  .00005081  00000-0  33710-3 0  9990,2 52303  53.2142 129.2695 0001362  92.7887 267.3261 15.08838610 81544,6917.885,95.438,540.692,538.807,0.0
52303.0,STARLINK-3742,PAYLOAD,2023-10-03 07:34:39,15.088328,0.0001436,53.2147,127.1878,91.776,268.3396,0.00055328,8.527e-05,0.0,0 STARLINK-3742,1 52303U 22041AU  23276.31573094  .00008527  00000-0  55328-3 0  9992,2 52303  53.2147 127.1878 0001436  91.7760 268.3396 15.08832800 81613,6917.902,95.438,540.761,538.774,0.0
52303.0,STARLINK-3742,PAYLOAD,2023-10-03 20:17:44,15.0884309,0.0001461,53.215,124.8083,90.1583,269.9577,0.00072728,0.00011307,0.0,0 STARLINK-3742,1 52303U 22041AU  23276.84565260  .00011307  00000-0  72728-3 0  9999,2 52303  53.2150 124.8083 0001461  90.1583 269.9577 15.08843090 81692,6917.871,95.437,540.747,538.725,0.0
52303.0,STARLINK-3742,PAYLOAD,2023-10-03 23:28:30,15.08846577,0.0001564,53.2148,124.2132,93.5395,266.5776,0.00088071,0.00013759,0.0,0 STARLINK-3742,1 52303U 22041AU  23276.97813213  .00013759  00000-0  88071-3 0  9998,2 52303  53.2148 124.2132 0001564  93.5395 266.5776 15.08846577 81710,6917.86,95.437,540.807,538.643,0.0
52303.0,STARLINK-3742,PAYLOAD,2023-10-04 18:33:07,15.08857403,0.000159,53.2158,120.6432,90.3271,269.7904,0.00058734,9.076e-05,0.0,0 STARLINK-3742,1 52303U 22041AU  23277.77300643  .00009076  00000-0  58734-3 0  9995,2 52303  53.2158 120.6432 0001590  90.3271 269.7904 15.08857403 81832,6917.827,95.436,540.792,538.592,0.0
52303.0,STARLINK-3742,PAYLOAD,2023-10-04 20:08:30,15.08860128,0.0001528,53.216,120.3445,96.0235,264.0931,0.00063265,9.8e-05,0.0,0 STARLINK-3742,1 52303U 22041AU  23277.83924464  .00009800  00000-0  63265-3 0  9995,2 52303  53.2160 120.3445 0001528  96.0235 264.0931 15.08860128 81847,6917.819,95.436,540.741,538.627,0.0
52303.0,STARLINK-3742,PAYLOAD,2023-10-04 21:43:53,15.08861252,0.0001529,53.2162,120.0473,95.8148,264.3019,0.00062724,9.714e-05,0.0,0 STARLINK-3742,1 52303U 22041AU  23277.90548374  .00009714  00000-0  62724-3 0  9998,2 52303  53.2162 120.0473 0001529  95.8148 264.3019 15.08861252 81858,6917.815,95.436,540.738,538.623,0.0
52303.0,STARLINK-3742,PAYLOAD,2023-10-05 18:23:54,15.08850287,0.0001414,53.2165,116.1813,110.6198,249.4946,0.00026035,3.859e-05,0.0,0 STARLINK-3742,1 52303U 22041AU  23278.76660325  .00003859  00000-0  26035-3 0  9993,2 52303  53.2165 116.1813 0001414 110.6198 249.4946 15.08850287 81982,6917.849,95.437,540.692,538.736,0.0
52303.0,STARLINK-3742,PAYLOAD,2023-10-06 13:28:32,15.08835611,0.0001511,53.2166,112.613,115.4152,244.6996,3.032e-05,1.95e-06,0.0,0 STARLINK-3742,1 52303U 22041AU  23279.56148771  .00000195  00000-0  30320-4 0  9991,2 52303  53.2166 112.6130 0001511 115.4152 244.6996 15.08835611 82108,6917.894,95.438,540.804,538.714,0.0
52303.0,STARLINK-3742,PAYLOAD,2023-10-06 18:14:41,15.08842281,0.0001522,53.2165,111.7209,114.1544,245.9608,4.4675e-05,4.23e-06,0.0,0 STARLINK-3742,1 52303U 22041AU  23279.76020588  .00000423  00000-0  44675-4 0  9990,2 52303  53.2165 111.7209 0001522 114.1544 245.9608 15.08842281 82135,6917.873,95.437,540.791,538.686,0.0
52303.0,STARLINK-3742,PAYLOAD,2023-10-06 21:25:28,15.08843957,0.0001233,53.2159,111.1297,93.5825,266.5308,0.00012429,1.691e-05,0.0,0 STARLINK-3742,1 52303U 22041AU  23279.89268532  .00001691  00000-0  12429-3 0  9996,2 52303  53.2159 111.1297 0001233  93.5825 266.5308 15.08843957 82159,6917.868,95.437,540.586,538.88,0.0
52303.0,STARLINK-3742,PAYLOAD,2023-10-07 13:19:19,15.08840193,0.0001072,53.2156,108.1573,94.0766,266.0348,-3.8206e-05,-8.96e-06,0.0,0 STARLINK-3742,1 52303U 22041AU  23280.55508921 -.00000896  00000-0 -38206-4 0  9990,2 52303  53.2156 108.1573 0001072  94.0766 266.0348 15.08840193 82259,6917.88,95.438,540.486,539.003,0.0
52303.0,STARLINK-3742,PAYLOAD,2023-10-07 19:40:52,15.08844088,0.0001027,53.2161,106.9681,92.3959,267.7151,0.00010402,1.368e-05,0.0,0 STARLINK-3742,1 52303U 22041AU  23280.82004681  .00001368  00000-0  10402-3 0  9994,2 52303  53.2161 106.9681 0001027  92.3959 267.7151 15.08844088 82297,6917.868,95.437,540.443,539.022,0.0
